GPS BIIR-2  (PRN 13)    
1 24876U 97035A   23326.87034685  .00000101  00000+0  00000+0 0  9998
2 24876  55.6103 135.2363 0075178  53.6088 307.1053  2.00564605193156
GPS BIIR-4  (PRN 20)    
1 26360U 00025A   23327.26598056 -.00000076  00000+0  00000+0 0  9994
2 26360  54.4987  57.3319 0041770 204.9073 171.5740  2.00565081172482
GPS BIIR-5  (PRN 22)    
1 26407U 00040A   23327.19579757 -.00000040  00000+0  00000+0 0  9993
2 26407  55.1623 252.4239 0151939 292.9602 234.6581  2.00557125171159
GPS BIIR-8  (PRN 16)    
1 27663U 03005A   23327.40292689 -.00000039  00000+0  00000+0 0  9990
2 27663  55.2032 252.2266 0135309  45.3472  48.5039  2.00561317152523
GPS BIIR-9  (PRN 21)    
1 27704U 03010A   23327.52718887 -.00000084  00000+0  00000+0 0  9998
2 27704  55.1153   2.1330 0251321 320.6396  81.2214  2.00554726151325
GPS BIIR-11 (PRN 19)    
1 28190U 04009A   23327.26263759 -.00000059  00000+0  00000+0 0  9993
2 28190  55.6287 313.2890 0092093 141.6035   7.7509  2.00564700144151
GPS BIIR-13 (PRN 02)    
1 28474U 04045A   23327.55144463 -.00000084  00000+0  00000+0 0  9998
2 28474  55.4428   2.4806 0164701 284.9394 125.8342  2.00557545139644
GPS BIIRM-1 (PRN 17)    
1 28874U 05038A   23327.00410985 -.00000056  00000+0  00000+0 0  9999
2 28874  55.6788 310.7537 0140365 281.2080  64.9250  2.00569911133035
GPS BIIRM-2 (PRN 31)    
1 29486U 06042A   23327.36245354  .00000080  00000+0  00000+0 0  9996
2 29486  54.6791 188.4837 0104721  34.9014 110.6094  2.00565780125606
GPS BIIRM-3 (PRN 12)    
1 29601U 06052A   23327.08730916 -.00000038  00000+0  00000+0 0  9992
2 29601  55.2267 251.2036 0085176  79.6585 281.3125  2.00553796124616
GPS BIIRM-4 (PRN 15)    
1 32260U 07047A   23326.90081318  .00000067  00000+0  00000+0 0  9998
2 32260  53.5043 118.8424 0152501  72.7377 288.9231  2.00574730118012
GPS BIIRM-5 (PRN 29)    
1 32384U 07062A   23327.44671299 -.00000060  00000+0  00000+0 0  9999
2 32384  55.8124 311.5691 0023960 151.9710  12.9546  2.00562660116728
GPS BIIRM-6 (PRN 07)    
1 32711U 08012A   23327.31306006  .00000081  00000+0  00000+0 0  9998
2 32711  54.4480 187.2980 0178230 236.3132 122.0617  2.00560061114967
GPS BIIRM-8 (PRN 05)    
1 35752U 09043A   23327.32755817 -.00000065  00000+0  00000+0 0  9993
2 35752  55.5009  64.5251 0056541  70.3626 315.6683  2.00553298104579
GPS BIIF-1  (PRN 25)    
1 36585U 10022A   23327.36970469 -.00000032  00000+0  00000+0 0  9997
2 36585  54.5283 246.3559 0112888  59.9873 115.7193  2.00565993 98800
GPS BIIF-3  (PRN 24)    
1 38833U 12053A   23326.98788121  .00000086  00000+0  00000+0 0  9998
2 38833  53.5106 181.9371 0146940  53.6244 307.8101  2.00568429 80649
GPS BIIF-4  (PRN 27)    
1 39166U 13023A   23326.85209631 -.00000055  00000+0  00000+0 0  9993
2 39166  55.2930 306.9243 0117133  41.5652 319.3181  2.00564024 77088
GPS BIIF-5  (PRN 30)    
1 39533U 14008A   23326.85410754  .00000075  00000+0  00000+0 0  9996
2 39533  53.5960 187.5116 0067181 215.2223 144.4179  2.00556132 70889
GPS BIIF-6  (PRN 06)    
1 39741U 14026A   23327.13678576 -.00000084  00000+0  00000+0 0  9998
2 39741  56.7040   7.8949 0031958 309.6873  50.0882  2.00551433 69749
GPS BIIF-7  (PRN 09)    
1 40105U 14045A   23326.22269575  .00000089  00000+0  00000+0 0  9993
2 40105  54.8451 125.9195 0027608 115.6828 244.6126  2.00551910 67264
GPS BIIF-8  (PRN 03)    
1 40294U 14068A   23327.09092688 -.00000057  00000+0  00000+0 0  9998
2 40294  56.2455  67.3364 0048656  62.6903 297.8004  2.00576918 66417
GPS BIIF-9  (PRN 26)    
1 40534U 15013A   23327.23483327 -.00000029  00000+0  00000+0 0  9995
2 40534  53.4263 242.9801 0084641  27.1879 333.2779  2.00549643 63033
GPS BIIF-10 (PRN 08)    
1 40730U 15033A   23327.39669238 -.00000061  00000+0  00000+0 0  9995
2 40730  54.7795 305.4778 0089036  14.5581 345.6903  2.00550642 61200
GPS BIIF-11 (PRN 10)    
1 41019U 15062A   23327.44601351 -.00000061  00000+0  00000+0 0  9996
2 41019  56.2287  67.1741 0092740 222.3293 136.9498  2.00562136 59041
GPS BIIF-12 (PRN 32)    
1 41328U 16007A   23327.03432557  .00000085  00000+0  00000+0 0  9999
2 41328  55.0477 126.6834 0073427 233.7749 125.5528  2.00571796 57047
GPS BIII-1  (PRN 04)    
1 43873U 18109A   23326.00692429  .00000096  00000+0  00000+0 0  9995
2 43873  55.2218 129.2559 0027453 190.0031  42.3637  2.00571103 36258
GPS BIII-2  (PRN 18)    
1 44506U 19056A   23327.53895014 -.00000087  00000+0  00000+0 0  9996
2 44506  55.8309   8.2643 0038655 189.3160 327.3747  2.00566955 31284
GPS BIII-3  (PRN 23)    
1 45854U 20041A   23327.27704043 -.00000062  00000+0  00000+0 0  9994
2 45854  55.9501  65.5714 0039038 189.5198  80.4513  2.00561238 25246
GPS BIII-4  (PRN 14)    
1 46826U 20078A   23327.59782306 -.00000035  00000+0  00000+0 0  9997
2 46826  54.2713 248.8048 0037517 194.2587 283.4144  2.00562484 22723
GPS BIII-5  (PRN 11)    
1 48859U 21054A   23326.17931693 -.00000086  00000+0  00000+0 0  9994
2 48859  55.3500  10.0667 0014167 220.2239 137.4561  2.00568938 17931
GPS BIII-6  (PRN 28)    
1 55268U 23009A   23318.91577271  .00000082  00000+0  00000+0 0  9994
2 55268  55.0850 185.6086 0005363  89.1720 100.7618  2.00550681  6285
